{
  "type": "FeatureCollection",
  "features": [
    {
      "type": "Feature",
      "properties": {
        "norad_id": 54741,
        "name": "GALAXY 35 (G-35)",
        "group": "intelsat",
        "lat": 0.011712932732006827,
        "lon": 72.68923699554705,
        "alt_km": 35797.25232435266,
        "timestamp": "2025-12-10T05:46:13.465674+00:00",
        "meta_object_name": "GALAXY 35 (G-35)",
        "meta_object_id": "2022-170A",
        "meta_epoch": "2025-12-09T12:23:46.557312",
        "meta_mean_motion": 1.00271041,
        "meta_eccentricity": 0.00026435,
        "meta_inclination": 0.0265,
        "meta_ra_of_asc_node": 90.9094,
        "meta_arg_of_pericenter": 174.1639,
        "meta_mean_anomaly": 266.2888,
        "meta_ephemeris_type": 0,
        "meta_classification_type": "U",
        "meta_norad_cat_id": 54741,
        "meta_element_set_no": 999,
        "meta_rev_at_epoch": 1099,
        "meta_bstar": 0,
        "meta_mean_motion_dot": -1.6e-06,
        "meta_mean_motion_ddot": 0,
        "tle_line1": "1 54741U 22170A   25343.51651108 -.00000160  00000+0  00000+0 0  9993",
        "tle_line2": "2 54741   0.0265  90.9094 0002643 174.1639 266.2888  1.00271041 10998"
      },
      "geometry": {
        "type": "Point",
        "coordinates": [
          72.68923699554705,
          0.011712932732006827
        ]
      }
    },
    {
      "type": "Feature",
      "properties": {
        "norad_id": 54742,
        "name": "GALAXY 36 (G-36)",
        "group": "intelsat",
        "lat": 0.021956087049993574,
        "lon": 76.76915839822601,
        "alt_km": 35788.54581937411,
        "timestamp": "2025-12-10T05:46:13.465685+00:00",
        "meta_object_name": "GALAXY 36 (G-36)",
        "meta_object_id": "2022-170B",
        "meta_epoch": "2025-12-09T12:25:42.117312",
        "meta_mean_motion": 1.00270711,
        "meta_eccentricity": 5.692e-05,
        "meta_inclination": 0.009,
        "meta_ra_of_asc_node": 28.1287,
        "meta_arg_of_pericenter": 256.8245,
        "meta_mean_anomaly": 250.976,
        "meta_ephemeris_type": 0,
        "meta_classification_type": "U",
        "meta_norad_cat_id": 54742,
        "meta_element_set_no": 999,
        "meta_rev_at_epoch": 1087,
        "meta_bstar": 0,
        "meta_mean_motion_dot": -1.83e-06,
        "meta_mean_motion_ddot": 0,
        "tle_line1": "1 54742U 22170B   25343.51784858 -.00000183  00000+0  00000+0 0  9998",
        "tle_line2": "2 54742   0.0090  28.1287 0000569 256.8245 250.9760  1.00270711 10877"
      },
      "geometry": {
        "type": "Point",
        "coordinates": [
          76.76915839822601,
          0.021956087049993574
        ]
      }
    },
    {
      "type": "Feature",
      "properties": {
        "norad_id": 57493,
        "name": "GALAXY 37 (G-37)",
        "group": "intelsat",
        "lat": 0.02474419112925896,
        "lon": 38.795042064720406,
        "alt_km": 35792.98606140634,
        "timestamp": "2025-12-10T05:46:13.465696+00:00",
        "meta_object_name": "GALAXY 37 (G-37)",
        "meta_object_id": "2023-112A",
        "meta_epoch": "2025-12-09T14:40:53.808960",
        "meta_mean_motion": 1.00271712,
        "meta_eccentricity": 0.0002326,
        "meta_inclination": 0.0109,
        "meta_ra_of_asc_node": 345.3926,
        "meta_arg_of_pericenter": 278.6766,
        "meta_mean_anomaly": 267.7583,
        "meta_ephemeris_type": 0,
        "meta_classification_type": "U",
        "meta_norad_cat_id": 57493,
        "meta_element_set_no": 999,
        "meta_rev_at_epoch": 864,
        "meta_bstar": 0,
        "meta_mean_motion_dot": 5e-07,
        "meta_mean_motion_ddot": 0,
        "tle_line1": "1 57493U 23112A   25343.61173390  .00000050  00000+0  00000+0 0  9997",
        "tle_line2": "2 57493   0.0109 345.3926 0002326 278.6766 267.7583  1.00271712  8644"
      },
      "geometry": {
        "type": "Point",
        "coordinates": [
          38.795042064720406,
          0.02474419112925896
        ]
      }
    }
  ]
}